[
    {
        "Altitude(m)": 604983.0529731194,
        "Argument of Periapsis(deg)": 0.0,
        "Eccentricity": 0.0,
        "Inclination(deg)": 60.0,
        "Latitude(deg)": -0.09265119939092505,
        "Longitude(deg)": 0.08391655028391129,
        "Mean Anomaly(deg)": -180.0,
        "RAAN(deg)": 280.0,
        "Satellite Name": "Test1 1243",
        "Satellite Number": 1243,
        "Semi-Major Axis(m)": 6980739.136638005,
        "Time(s)": 0
    },
    {
        "Altitude(m)": 605055.3324525844,
        "Argument of Periapsis(deg)": 0.00010418945913296404,
        "Eccentricity": 0.0,
        "Inclination(deg)": 60.0,
        "Latitude(deg)": -0.6330606360113021,
        "Longitude(deg)": 0.35204233285087233,
        "Mean Anomaly(deg)": -179.37989385453815,
        "RAAN(deg)": 279.99957995086027,
        "Satellite Name": "Test1 1243",
        "Satellite Number": 1243,
        "Semi-Major Axis(m)": 6980739.136638005,
        "Time(s)": 10
    },
    {
        "Altitude(m)": 605130.8209868047,
        "Argument of Periapsis(deg)": 0.0002083789182659281,
        "Eccentricity": 0.0,
        "Inclination(deg)": 60.0,
        "Latitude(deg)": -1.1734391521055625,
        "Longitude(deg)": 0.620225753059063,
        "Mean Anomaly(deg)": -178.7597877090764,
        "RAAN(deg)": 279.9991599017205,
        "Satellite Name": "Test1 1243",
        "Satellite Number": 1243,
        "Semi-Major Axis(m)": 6980739.136638005,
        "Time(s)": 20
    },
    {
        "Altitude(m)": 605209.5076124513,
        "Argument of Periapsis(deg)": 0.00031256837739889213,
        "Eccentricity": 0.0,
        "Inclination(deg)": 60.0,
        "Latitude(deg)": -1.7137696671520746,
        "Longitude(deg)": 0.8885211987276271,
        "Mean Anomaly(deg)": -178.1396815636145,
        "RAAN(deg)": 279.9987398525808,
        "Satellite Name": "Test1 1243",
        "Satellite Number": 1243,
        "Semi-Major Axis(m)": 6980739.136638005,
        "Time(s)": 30
    },
    {
        "Altitude(m)": 605291.3798422639,
        "Argument of Periapsis(deg)": 0.0004167578365318562,
        "Eccentricity": 0.0,
        "Inclination(deg)": 60.0,
        "Latitude(deg)": -2.254035082576796,
        "Longitude(deg)": 1.156983625466646,
        "Mean Anomaly(deg)": -177.51957541815273,
        "RAAN(deg)": 279.99831980344106,
        "Satellite Name": "Test1 1243",
        "Satellite Number": 1243,
        "Semi-Major Axis(m)": 6980739.136638005,
        "Time(s)": 40
    },
    {
        "Altitude(m)": 605376.4236683848,
        "Argument of Periapsis(deg)": 0.0005209472956648203,
        "Eccentricity": 0.0,
        "Inclination(deg)": 60.0,
        "Latitude(deg)": -2.7942182718443584,
        "Longitude(deg)": 1.4256675800984153,
        "Mean Anomaly(deg)": -176.8994692726909,
        "RAAN(deg)": 279.9978997543013,
        "Satellite Name": "Test1 1243",
        "Satellite Number": 1243,
        "Semi-Major Axis(m)": 6980739.136638005,
        "Time(s)": 50
    },
    {
        "Altitude(m)": 605464.6235664393,
        "Argument of Periapsis(deg)": 0.0006251367547977843,
        "Eccentricity": 0.0,
        "Inclination(deg)": 60.0,
        "Latitude(deg)": -3.3343020705042896,
        "Longitude(deg)": 1.6946277370328982,
        "Mean Anomaly(deg)": -176.27936312722903,
        "RAAN(deg)": 279.9974797051615,
        "Satellite Name": "Test1 1243",
        "Satellite Number": 1243,
        "Semi-Major Axis(m)": 6980739.136638005,
        "Time(s)": 60
    },
    {
        "Altitude(m)": 605555.962500318,
        "Argument of Periapsis(deg)": 0.0007293262139307483,
        "Eccentricity": 0.0,
        "Inclination(deg)": 60.0,
        "Latitude(deg)": -3.874269266185695,
        "Longitude(deg)": 1.963919434757488,
        "Mean Anomaly(deg)": -175.65925698176721,
        "RAAN(deg)": 279.9970596560218,
        "Satellite Name": "Test1 1243",
        "Satellite Number": 1243,
        "Semi-Major Axis(m)": 6980739.136638005,
        "Time(s)": 70
    },
    {
        "Altitude(m)": 605650.4219277696,
        "Argument of Periapsis(deg)": 0.0008335156730637124,
        "Eccentricity": 0.0,
        "Inclination(deg)": 60.0,
        "Latitude(deg)": -4.414102588526478,
        "Longitude(deg)": 2.23359769959325,
        "Mean Anomaly(deg)": -175.03915083630537,
        "RAAN(deg)": 279.996639606882,
        "Satellite Name": "Test1 1243",
        "Satellite Number": 1243,
        "Semi-Major Axis(m)": 6980739.136638005,
        "Time(s)": 80
    },
    {
        "Altitude(m)": 605747.9818066965,
        "Argument of Periapsis(deg)": 0.0009377051321966765,
        "Eccentricity": 0.0,
        "Inclination(deg)": 60.0,
        "Latitude(deg)": -4.953784699019695,
        "Longitude(deg)": 2.503717782494353,
        "Mean Anomaly(deg)": -174.41904469084352,
        "RAAN(deg)": 279.9962195577423,
        "Satellite Name": "Test1 1243",
        "Satellite Number": 1243,
        "Semi-Major Axis(m)": 6980739.136638005,
        "Time(s)": 90
    },
    {
        "Altitude(m)": 605848.6206021875,
        "Argument of Periapsis(deg)": 0.0010418945913296407,
        "Eccentricity": 0.0,
        "Inclination(deg)": 60.0,
        "Latitude(deg)": -5.493298180765862,
        "Longitude(deg)": 2.774335696046763,
        "Mean Anomaly(deg)": -173.79893854538167,
        "RAAN(deg)": 279.99579950860254,
        "Satellite Name": "Test1 1243",
        "Satellite Number": 1243,
        "Semi-Major Axis(m)": 6980739.136638005,
        "Time(s)": 100
    },
    {
        "Altitude(m)": 605952.3152943081,
        "Argument of Periapsis(deg)": 0.0011460840504626045,
        "Eccentricity": 0.0,
        "Inclination(deg)": 60.0,
        "Latitude(deg)": -6.032625528119825,
        "Longitude(deg)": 3.0455072388208206,
        "Mean Anomaly(deg)": -173.17883239991986,
        "RAAN(deg)": 279.9953794594628,
        "Satellite Name": "Test1 1243",
        "Satellite Number": 1243,
        "Semi-Major Axis(m)": 6980739.136638005,
        "Time(s)": 110
    },
    {
        "Altitude(m)": 606059.0413865888,
        "Argument of Periapsis(deg)": 0.0012502735095955685,
        "Eccentricity": 0.0,
        "Inclination(deg)": 60.0,
        "Latitude(deg)": -6.5717491362127385,
        "Longitude(deg)": 3.3172885328537527,
        "Mean Anomaly(deg)": -172.558726254458,
        "RAAN(deg)": 279.9949594103231,
        "Satellite Name": "Test1 1243",
        "Satellite Number": 1243,
        "Semi-Major Axis(m)": 6980739.136638005,
        "Time(s)": 120
    },
    {
        "Altitude(m)": 606168.7729152873,
        "Argument of Periapsis(deg)": 0.0013544629687285324,
        "Eccentricity": 0.0,
        "Inclination(deg)": 60.0,
        "Latitude(deg)": -7.110651290337653,
        "Longitude(deg)": 3.5897365614180634,
        "Mean Anomaly(deg)": -171.93862010899616,
        "RAAN(deg)": 279.99453936118334,
        "Satellite Name": "Test1 1243",
        "Satellite Number": 1243,
        "Semi-Major Axis(m)": 6980739.136638005,
        "Time(s)": 130
    },
    {
        "Altitude(m)": 606281.482459311,
        "Argument of Periapsis(deg)": 0.0014586524278614966,
        "Eccentricity": 0.0,
        "Inclination(deg)": 60.0,
        "Latitude(deg)": -7.649314155187566,
        "Longitude(deg)": 3.8629081942315047,
        "Mean Anomaly(deg)": -171.31851396353431,
        "RAAN(deg)": 279.99411931204355,
        "Satellite Name": "Test1 1243",
        "Satellite Number": 1243,
        "Semi-Major Axis(m)": 6980739.136638005,
        "Time(s)": 140
    },
    {
        "Altitude(m)": 606397.1411509226,
        "Argument of Periapsis(deg)": 0.0015628418869944607,
        "Eccentricity": 0.0,
        "Inclination(deg)": 60.0,
        "Latitude(deg)": -8.18771976392508,
        "Longitude(deg)": 4.136860725884185,
        "Mean Anomaly(deg)": -170.6984078180725,
        "RAAN(deg)": 279.9936992629039,
        "Satellite Name": "Test1 1243",
        "Satellite Number": 1243,
        "Semi-Major Axis(m)": 6980739.136638005,
        "Time(s)": 150
    },
    {
        "Altitude(m)": 606515.71868708,
        "Argument of Periapsis(deg)": 0.0016670313461274247,
        "Eccentricity": 0.0,
        "Inclination(deg)": 60.0,
        "Latitude(deg)": -8.725850007071834,
        "Longitude(deg)": 4.411652414639034,
        "Mean Anomaly(deg)": -170.07830167261065,
        "RAAN(deg)": 279.9932792137641,
        "Satellite Name": "Test1 1243",
        "Satellite Number": 1243,
        "Semi-Major Axis(m)": 6980739.136638005,
        "Time(s)": 160
    },
    {
        "Altitude(m)": 606637.1833415567,
        "Argument of Periapsis(deg)": 0.0017712208052603888,
        "Eccentricity": 0.0,
        "Inclination(deg)": 60.0,
        "Latitude(deg)": -9.263686621205414,
        "Longitude(deg)": 4.687341508761446,
        "Mean Anomaly(deg)": -169.45819552714892,
        "RAAN(deg)": 279.99285916462435,
        "Satellite Name": "Test1 1243",
        "Satellite Number": 1243,
        "Semi-Major Axis(m)": 6980739.136638005,
        "Time(s)": 170
    },
    {
        "Altitude(m)": 606761.5019776941,
        "Argument of Periapsis(deg)": 0.001875410264393353,
        "Eccentricity": 0.0,
        "Inclination(deg)": 60.0,
        "Latitude(deg)": -9.80121117744293,
        "Longitude(deg)": 4.963986786154117,
        "Mean Anomaly(deg)": -168.83808938168704,
        "RAAN(deg)": 279.9924391154846,
        "Satellite Name": "Test1 1243",
        "Satellite Number": 1243,
        "Semi-Major Axis(m)": 6980739.136638005,
        "Time(s)": 180
    },
    {
        "Altitude(m)": 606888.6400619026,
        "Argument of Periapsis(deg)": 0.0019795997235263173,
        "Eccentricity": 0.0,
        "Inclination(deg)": 60.0,
        "Latitude(deg)": -10.338405069697247,
        "Longitude(deg)": 5.241648094453215,
        "Mean Anomaly(deg)": -168.21798323622525,
        "RAAN(deg)": 279.9920190663449,
        "Satellite Name": "Test1 1243",
        "Satellite Number": 1243,
        "Semi-Major Axis(m)": 6980739.136638005,
        "Time(s)": 190
    }
]